{"fetched_at":"2026-03-29T16:36:15Z","count":15609,"tles":[{"name":"STARLINK-2291","line1":"1 47862U 21021C   26087.60825379  .00022376  00000+0  76589-3 0  9993","line2":"2 47862  53.1595 167.3882 0002159  95.2580 264.8667 15.30176116279321","category":"Starlink"}]}