{
  "norad_id": 47862,
  "name": "STARLINK-2291",
  "history": [
    {
      "epoch": "2026-03-28T14:35:53.127456",
      "apogee_km": 476.7660377743241,
      "perigee_km": 473.8067295572573,
      "latitude_deg": 53.03148572012122,
      "longitude_deg": 104.59236383996904,
      "semi_major_axis_km": 6853.42338366579,
      "eccentricity": 0.0002159,
      "inclination_deg": 53.1595,
      "raan_deg": 167.3882,
      "arg_perigee_deg": 95.258,
      "mean_anomaly_deg": 264.8667,
      "mean_motion_rev_day": 15.30176116
    }
  ]
}